[{"CCSDS_OMM_VERS":"2.0","COMMENT":"GENERATED VIA SPACE-TRACK.ORG API","CREATION_DATE":"2020-04-12T22:16:09","ORIGINATOR":"18 SPCS","OBJECT_NAME":"ONEWEB-0007","OBJECT_ID":"2019-010D","CENTER_NAME":"EARTH","REF_FRAME":"TEME","TIME_SYSTEM":"UTC","MEAN_ELEMENT_THEORY":"SGP4","EPOCH":"2020-04-12T20:00:01.000224","MEAN_MOTION":"13.21837133","ECCENTRICITY":"0.00018850","INCLINATION":"87.9231","RA_OF_ASC_NODE":"347.4924","ARG_OF_PERICENTER":"88.4261","MEAN_ANOMALY":"102.9597","EPHEMERIS_TYPE":"0","CLASSIFICATION_TYPE":"U","NORAD_CAT_ID":"44060","ELEMENT_SET_NO":"999","REV_AT_EPOCH":"5438","BSTAR":"-0.10891000000000","MEAN_MOTION_DOT":"-0.00044753","MEAN_MOTION_DDOT":"0.0000000000000","SEMIMAJOR_AXIS":"7555.847","PERIOD":"108.939","APOAPSIS":"1179.137","PERIAPSIS":"1176.288","OBJECT_TYPE":"PAYLOAD","RCS_SIZE":"LARGE","COUNTRY_CODE":"UK","LAUNCH_DATE":"2019-02-27","SITE":"FRGUI","DECAY_DATE":null,"FILE":"2733012","GP_ID":"152077503","TLE_LINE0":"0 ONEWEB-0007","TLE_LINE1":"1 44060U 19010D   20103.83334491 -.00044753  00000-0 -10891+0 0  9999","TLE_LINE2":"2 44060  87.9231 347.4924 0001885  88.4261 102.9597 13.21837133 54385"},{"CCSDS_OMM_VERS":"2.0","COMMENT":"GENERATED VIA SPACE-TRACK.ORG API","CREATION_DATE":"2020-04-13T18:24:00","ORIGINATOR":"18 SPCS","OBJECT_NAME":"ONEWEB-0007","OBJECT_ID":"2019-010D","CENTER_NAME":"EARTH","REF_FRAME":"TEME","TIME_SYSTEM":"UTC","MEAN_ELEMENT_THEORY":"SGP4","EPOCH":"2020-04-13T02:00:01.000224","MEAN_MOTION":"13.21796156","ECCENTRICITY":"0.00019240","INCLINATION":"87.9230","RA_OF_ASC_NODE":"347.4423","ARG_OF_PERICENTER":"87.6100","MEAN_ANOMALY":"212.7377","EPHEMERIS_TYPE":"0","CLASSIFICATION_TYPE":"U","NORAD_CAT_ID":"44060","ELEMENT_SET_NO":"999","REV_AT_EPOCH":"5441","BSTAR":"0.09913200000000","MEAN_MOTION_DOT":"0.00041123","MEAN_MOTION_DDOT":"0.0000000000000","SEMIMAJOR_AXIS":"7556.004","PERIOD":"108.942","APOAPSIS":"1179.322","PERIAPSIS":"1176.415","OBJECT_TYPE":"PAYLOAD","RCS_SIZE":"LARGE","COUNTRY_CODE":"UK","LAUNCH_DATE":"2019-02-27","SITE":"FRGUI","DECAY_DATE":null,"FILE":"2733371","GP_ID":"152124608","TLE_LINE0":"0 ONEWEB-0007","TLE_LINE1":"1 44060U 19010D   20104.08334491 +.00041123 +00000-0 +99132-1 0  9990","TLE_LINE2":"2 44060 087.9230 347.4423 0001924 087.6100 212.7377 13.21796156054414"},{"CCSDS_OMM_VERS":"2.0","COMMENT":"GENERATED VIA SPACE-TRACK.ORG API","CREATION_DATE":"2020-04-13T14:16:08","ORIGINATOR":"18 SPCS","OBJECT_NAME":"ONEWEB-0007","OBJECT_ID":"2019-010D","CENTER_NAME":"EARTH","REF_FRAME":"TEME","TIME_SYSTEM":"UTC","MEAN_ELEMENT_THEORY":"SGP4","EPOCH":"2020-04-13T08:00:01.000224","MEAN_MOTION":"13.21834823","ECCENTRICITY":"0.00019830","INCLINATION":"87.9229","RA_OF_ASC_NODE":"347.3930","ARG_OF_PERICENTER":"88.2823","MEAN_ANOMALY":"321.0066","EPHEMERIS_TYPE":"0","CLASSIFICATION_TYPE":"U","NORAD_CAT_ID":"44060","ELEMENT_SET_NO":"999","REV_AT_EPOCH":"5445","BSTAR":"-0.10463000000000","MEAN_MOTION_DOT":"-0.00043001","MEAN_MOTION_DDOT":"0.0000000000000","SEMIMAJOR_AXIS":"7555.856","PERIOD":"108.939","APOAPSIS":"1179.220","PERIAPSIS":"1176.223","OBJECT_TYPE":"PAYLOAD","RCS_SIZE":"LARGE","COUNTRY_CODE":"UK","LAUNCH_DATE":"2019-02-27","SITE":"FRGUI","DECAY_DATE":null,"FILE":"2733261","GP_ID":"152102944","TLE_LINE0":"0 ONEWEB-0007","TLE_LINE1":"1 44060U 19010D   20104.33334491 -.00043001  00000-0 -10463+0 0  9995","TLE_LINE2":"2 44060  87.9229 347.3930 0001983  88.2823 321.0066 13.21834823 54455"},{"CCSDS_OMM_VERS":"2.0","COMMENT":"GENERATED VIA SPACE-TRACK.ORG API","CREATION_DATE":"2020-04-13T22:16:09","ORIGINATOR":"18 SPCS","OBJECT_NAME":"ONEWEB-0007","OBJECT_ID":"2019-010D","CENTER_NAME":"EARTH","REF_FRAME":"TEME","TIME_SYSTEM":"UTC","MEAN_ELEMENT_THEORY":"SGP4","EPOCH":"2020-04-13T22:00:00.999936","MEAN_MOTION":"13.21814472","ECCENTRICITY":"0.00019080","INCLINATION":"87.9228","RA_OF_ASC_NODE":"347.2761","ARG_OF_PERICENTER":"88.1270","MEAN_ANOMALY":"215.3848","EPHEMERIS_TYPE":"0","CLASSIFICATION_TYPE":"U","NORAD_CAT_ID":"44060","ELEMENT_SET_NO":"999","REV_AT_EPOCH":"5452","BSTAR":"-0.02391900000000","MEAN_MOTION_DOT":"-0.00009853","MEAN_MOTION_DDOT":"0.0000000000000","SEMIMAJOR_AXIS":"7555.934","PERIOD":"108.941","APOAPSIS":"1179.240","PERIAPSIS":"1176.357","OBJECT_TYPE":"PAYLOAD","RCS_SIZE":"LARGE","COUNTRY_CODE":"UK","LAUNCH_DATE":"2019-02-27","SITE":"FRGUI","DECAY_DATE":null,"FILE":"2733410","GP_ID":"152125989","TLE_LINE0":"0 ONEWEB-0007","TLE_LINE1":"1 44060U 19010D   20104.91667824 -.00009853  00000-0 -23919-1 0  9997","TLE_LINE2":"2 44060  87.9228 347.2761 0001908  88.1270 215.3848 13.21814472 54526"},{"CCSDS_OMM_VERS":"2.0","COMMENT":"GENERATED VIA SPACE-TRACK.ORG API","CREATION_DATE":"2020-04-14T20:26:31","ORIGINATOR":"18 SPCS","OBJECT_NAME":"ONEWEB-0007","OBJECT_ID":"2019-010D","CENTER_NAME":"EARTH","REF_FRAME":"TEME","TIME_SYSTEM":"UTC","MEAN_ELEMENT_THEORY":"SGP4","EPOCH":"2020-04-14T14:00:01.000224","MEAN_MOTION":"13.21792068","ECCENTRICITY":"0.00019530","INCLINATION":"87.9226","RA_OF_ASC_NODE":"347.1439","ARG_OF_PERICENTER":"89.2557","MEAN_ANOMALY":"144.7887","EPHEMERIS_TYPE":"0","CLASSIFICATION_TYPE":"U","NORAD_CAT_ID":"44060","ELEMENT_SET_NO":"999","REV_AT_EPOCH":"173","BSTAR":"0.10906000000000","MEAN_MOTION_DOT":"0.00045258","MEAN_MOTION_DDOT":"0.0000000000000","SEMIMAJOR_AXIS":"7556.019","PERIOD":"108.943","APOAPSIS":"1179.360","PERIAPSIS":"1176.408","OBJECT_TYPE":"PAYLOAD","RCS_SIZE":"LARGE","COUNTRY_CODE":"UK","LAUNCH_DATE":"2019-02-27","SITE":"FRGUI","DECAY_DATE":null,"FILE":"2734003","GP_ID":"152177859","TLE_LINE0":"0 ONEWEB-0007","TLE_LINE1":"1 44060U 19010D   20105.58334491 +.00045258 +00000-0 +10906+0 0  9999","TLE_LINE2":"2 44060 087.9226 347.1439 0001953 089.2557 144.7887 13.21792068001734"},{"CCSDS_OMM_VERS":"2.0","COMMENT":"GENERATED VIA SPACE-TRACK.ORG API","CREATION_DATE":"2020-04-15T00:46:09","ORIGINATOR":"18 SPCS","OBJECT_NAME":"ONEWEB-0007","OBJECT_ID":"2019-010D","CENTER_NAME":"EARTH","REF_FRAME":"TEME","TIME_SYSTEM":"UTC","MEAN_ELEMENT_THEORY":"SGP4","EPOCH":"2020-04-14T18:00:00.999648","MEAN_MOTION":"13.21834193","ECCENTRICITY":"0.00019020","INCLINATION":"87.9226","RA_OF_ASC_NODE":"347.1103","ARG_OF_PERICENTER":"89.2385","MEAN_ANOMALY":"217.4244","EPHEMERIS_TYPE":"0","CLASSIFICATION_TYPE":"U","NORAD_CAT_ID":"44060","ELEMENT_SET_NO":"999","REV_AT_EPOCH":"5463","BSTAR":"-0.08679800000000","MEAN_MOTION_DOT":"-0.00035698","MEAN_MOTION_DDOT":"0.0000000000000","SEMIMAJOR_AXIS":"7555.859","PERIOD":"108.939","APOAPSIS":"1179.161","PERIAPSIS":"1176.287","OBJECT_TYPE":"PAYLOAD","RCS_SIZE":"LARGE","COUNTRY_CODE":"UK","LAUNCH_DATE":"2019-02-27","SITE":"FRGUI","DECAY_DATE":null,"FILE":"2734123","GP_ID":"152181820","TLE_LINE0":"0 ONEWEB-0007","TLE_LINE1":"1 44060U 19010D   20105.75001157 -.00035698  00000-0 -86798-1 0  9991","TLE_LINE2":"2 44060  87.9226 347.1103 0001902  89.2385 217.4244 13.21834193 54633"},{"CCSDS_OMM_VERS":"2.0","COMMENT":"GENERATED VIA SPACE-TRACK.ORG API","CREATION_DATE":"2020-04-15T01:42:14","ORIGINATOR":"18 SPCS","OBJECT_NAME":"ONEWEB-0007","OBJECT_ID":"2019-010D","CENTER_NAME":"EARTH","REF_FRAME":"TEME","TIME_SYSTEM":"UTC","MEAN_ELEMENT_THEORY":"SGP4","EPOCH":"2020-04-14T22:00:00.999936","MEAN_MOTION":"13.21811763","ECCENTRICITY":"0.00019160","INCLINATION":"87.9227","RA_OF_ASC_NODE":"347.0765","ARG_OF_PERICENTER":"88.7081","MEAN_ANOMALY":"290.5984","EPHEMERIS_TYPE":"0","CLASSIFICATION_TYPE":"U","NORAD_CAT_ID":"44060","ELEMENT_SET_NO":"999","REV_AT_EPOCH":"174","BSTAR":"-0.01741000000000","MEAN_MOTION_DOT":"-0.00007170","MEAN_MOTION_DDOT":"0.0000000000000","SEMIMAJOR_AXIS":"7555.944","PERIOD":"108.941","APOAPSIS":"1179.257","PERIAPSIS":"1176.361","OBJECT_TYPE":"PAYLOAD","RCS_SIZE":"LARGE","COUNTRY_CODE":"UK","LAUNCH_DATE":"2019-02-27","SITE":"FRGUI","DECAY_DATE":null,"FILE":"2734130","GP_ID":"152200617","TLE_LINE0":"0 ONEWEB-0007","TLE_LINE1":"1 44060U 19010D   20105.91667824 -.00007170 +00000-0 -17410-1 0  9997","TLE_LINE2":"2 44060 087.9227 347.0765 0001916 088.7081 290.5984 13.21811763001744"},{"CCSDS_OMM_VERS":"2.0","COMMENT":"GENERATED VIA SPACE-TRACK.ORG API","CREATION_DATE":"2020-04-15T14:16:09","ORIGINATOR":"18 SPCS","OBJECT_NAME":"ONEWEB-0007","OBJECT_ID":"2019-010D","CENTER_NAME":"EARTH","REF_FRAME":"TEME","TIME_SYSTEM":"UTC","MEAN_ELEMENT_THEORY":"SGP4","EPOCH":"2020-04-15T14:00:01.000224","MEAN_MOTION":"13.21792751","ECCENTRICITY":"0.00019710","INCLINATION":"87.9228","RA_OF_ASC_NODE":"346.9443","ARG_OF_PERICENTER":"89.1682","MEAN_ANOMALY":"220.6675","EPHEMERIS_TYPE":"0","CLASSIFICATION_TYPE":"U","NORAD_CAT_ID":"44060","ELEMENT_SET_NO":"999","REV_AT_EPOCH":"5474","BSTAR":"0.10681000000000","MEAN_MOTION_DOT":"0.00044320","MEAN_MOTION_DDOT":"0.0000000000000","SEMIMAJOR_AXIS":"7556.017","PERIOD":"108.942","APOAPSIS":"1179.371","PERIAPSIS":"1176.392","OBJECT_TYPE":"PAYLOAD","RCS_SIZE":"LARGE","COUNTRY_CODE":"UK","LAUNCH_DATE":"2019-02-27","SITE":"FRGUI","DECAY_DATE":null,"FILE":"2734358","GP_ID":"152206998","TLE_LINE0":"0 ONEWEB-0007","TLE_LINE1":"1 44060U 19010D   20106.58334491  .00044320  00000-0  10681+0 0  9999","TLE_LINE2":"2 44060  87.9228 346.9443 0001971  89.1682 220.6675 13.21792751 54743"}]